start=new Date('2023-02-15T00:00:00.000Z').valueOf();
sats=[{"RCS_SIZE":"LARGE","GP_ID":"225431676","MEAN_MOTION":"15.06396539","LAUNCH_DATE":"2021-02-04","RA_OF_ASC_NODE":"4.4246","SITE":"AFETR","BSTAR":"-0.00060549000000","FILE":"3792084","ECCENTRICITY":"0.00016660","ARG_OF_PERICENTER":"72.3628","ELEMENT_SET_NO":"999","SEMIMAJOR_AXIS":"6925.359","MEAN_ANOMALY":"287.7543","APOAPSIS":"548.378","TLE_LINE2":"2 47585  53.0536   4.4246 0001666  72.3628 287.7543 15.06396539112153","REV_AT_EPOCH":"11215","EPOCH":"2023-02-14T19:38:19.013568","NORAD_CAT_ID":"47585","MEAN_MOTION_DOT":"-0.00009288","OBJECT_ID":"2021-009AP","TIME_SYSTEM":"UTC","PERIAPSIS":"546.070","COUNTRY_CODE":"US","INCLINATION":"53.0536","EPHEMERIS_TYPE":"0","OBJECT_NAME":"STARLINK-1989","REF_FRAME":"TEME","CENTER_NAME":"EARTH","CLASSIFICATION_TYPE":"U","TLE_LINE1":"1 47585U 21009AP  23045.81827562 -.00009288  00000-0 -60549-3 0  9990","MEAN_MOTION_DDOT":"0.0000000000000","OBJECT_TYPE":"PAYLOAD","PERIOD":"95.592","MEAN_ELEMENT_THEORY":"SGP4","DECAY_DATE":null},{"CLASSIFICATION_TYPE":"U","TLE_LINE1":"1 47586U 21009AQ  23045.33726198  .00002934  00000-0  21577-3 0  9998","REF_FRAME":"TEME","OBJECT_NAME":"STARLINK-1990","CENTER_NAME":"EARTH","MEAN_ELEMENT_THEORY":"SGP4","DECAY_DATE":null,"MEAN_MOTION_DDOT":"0.0000000000000","OBJECT_TYPE":"PAYLOAD","PERIOD":"95.592","TIME_SYSTEM":"UTC","PERIAPSIS":"546.093","COUNTRY_CODE":"US","EPHEMERIS_TYPE":"0","INCLINATION":"53.0547","TLE_LINE2":"2 47586  53.0547  26.5921 0001620  94.2409 265.8765 15.06399532111801","REV_AT_EPOCH":"11180","SEMIMAJOR_AXIS":"6925.350","MEAN_ANOMALY":"265.8765","APOAPSIS":"548.337","MEAN_MOTION_DOT":"0.00002934","OBJECT_ID":"2021-009AQ","NORAD_CAT_ID":"47586","EPOCH":"2023-02-14T08:05:39.435072","RA_OF_ASC_NODE":"26.5921","SITE":"AFETR","GP_ID":"225390814","RCS_SIZE":"LARGE","MEAN_MOTION":"15.06399532","LAUNCH_DATE":"2021-02-04","ECCENTRICITY":"0.00016200","ARG_OF_PERICENTER":"94.2409","ELEMENT_SET_NO":"999","BSTAR":"0.00021577000000","FILE":"3791349"},{"MEAN_MOTION_DDOT":"0.0000000000000","OBJECT_TYPE":"PAYLOAD","PERIOD":"95.589","MEAN_ELEMENT_THEORY":"SGP4","DECAY_DATE":null,"OBJECT_NAME":"STARLINK-1991","CENTER_NAME":"EARTH","REF_FRAME":"TEME","TLE_LINE1":"1 47587U 21009AR  23045.33265088  .00039825  00000-0  26744-2 0  9994","CLASSIFICATION_TYPE":"U","INCLINATION":"53.0539","EPHEMERIS_TYPE":"0","TIME_SYSTEM":"UTC","COUNTRY_CODE":"US","PERIAPSIS":"546.336","EPOCH":"2023-02-14T07:59:01.036032","NORAD_CAT_ID":"47587","OBJECT_ID":"2021-009AR","MEAN_MOTION_DOT":"0.00039825","SEMIMAJOR_AXIS":"6925.220","APOAPSIS":"547.833","MEAN_ANOMALY":"269.4653","TLE_LINE2":"2 47587  53.0539 356.6126 0001081  90.6460 269.4653 15.06442047112228","REV_AT_EPOCH":"11222","BSTAR":"0.00267440000000","FILE":"3791349","ECCENTRICITY":"0.00010810","ELEMENT_SET_NO":"999","ARG_OF_PERICENTER":"90.6460","MEAN_MOTION":"15.06442047","GP_ID":"225392065","RCS_SIZE":"LARGE","LAUNCH_DATE":"2021-02-04","RA_OF_ASC_NODE":"356.6126","SITE":"AFETR"},{"NORAD_CAT_ID":"47588","EPOCH":"2023-02-14T14:09:14.118336","OBJECT_ID":"2021-009AS","MEAN_MOTION_DOT":"0.00012118","APOAPSIS":"548.166","MEAN_ANOMALY":"277.7098","SEMIMAJOR_AXIS":"6925.340","TLE_LINE2":"2 47588  53.0561   5.4517 0001387  82.4049 277.7098 15.06402733112737","REV_AT_EPOCH":"11273","FILE":"3791800","BSTAR":"0.00083096000000","ELEMENT_SET_NO":"999","ARG_OF_PERICENTER":"82.4049","ECCENTRICITY":"0.00013870","LAUNCH_DATE":"2021-02-04","MEAN_MOTION":"15.06402733","GP_ID":"225404422","RCS_SIZE":"LARGE","SITE":"AFETR","RA_OF_ASC_NODE":"5.4517","PERIOD":"95.592","MEAN_MOTION_DDOT":"0.0000000000000","OBJECT_TYPE":"PAYLOAD","DECAY_DATE":null,"MEAN_ELEMENT_THEORY":"SGP4","CENTER_NAME":"EARTH","OBJECT_NAME":"STARLINK-1993","REF_FRAME":"TEME","TLE_LINE1":"1 47588U 21009AS  23045.58974674  .00012118  00000-0  83096-3 0  9990","CLASSIFICATION_TYPE":"U","INCLINATION":"53.0561","EPHEMERIS_TYPE":"0","COUNTRY_CODE":"US","PERIAPSIS":"546.245","TIME_SYSTEM":"UTC"},{"REV_AT_EPOCH":"11212","TLE_LINE2":"2 47589  53.0526   5.3786 0001827  78.5574 281.5620 15.06415366112127","SEMIMAJOR_AXIS":"6925.301","MEAN_ANOMALY":"281.5620","APOAPSIS":"548.432","OBJECT_ID":"2021-009AT","MEAN_MOTION_DOT":"0.00035705","NORAD_CAT_ID":"47589","EPOCH":"2023-02-14T14:35:49.536672","SITE":"AFETR","RA_OF_ASC_NODE":"5.3786","RCS_SIZE":"LARGE","GP_ID":"225431177","MEAN_MOTION":"15.06415366","LAUNCH_DATE":"2021-02-04","ECCENTRICITY":"0.00018270","ARG_OF_PERICENTER":"78.5574","ELEMENT_SET_NO":"999","BSTAR":"0.00240280000000","FILE":"3792084","CLASSIFICATION_TYPE":"U","TLE_LINE1":"1 47589U 21009AT  23045.60821223  .00035705  00000-0  24028-2 0  9991","CENTER_NAME":"EARTH","OBJECT_NAME":"STARLINK-1994","REF_FRAME":"TEME","MEAN_ELEMENT_THEORY":"SGP4","DECAY_DATE":null,"MEAN_MOTION_DDOT":"0.0000000000000","OBJECT_TYPE":"PAYLOAD","PERIOD":"95.591","TIME_SYSTEM":"UTC","PERIAPSIS":"545.901","COUNTRY_CODE":"US","EPHEMERIS_TYPE":"0","INCLINATION":"53.0526"},{"OBJECT_ID":"2021-009AU","MEAN_MOTION_DOT":"0.00008871","EPOCH":"2023-02-14T17:33:36.016704","NORAD_CAT_ID":"47590","REV_AT_EPOCH":"11186","TLE_LINE2":"2 47590  53.0539  24.8238 0001477 115.4178 244.6964 15.06400848111863","SEMIMAJOR_AXIS":"6925.346","MEAN_ANOMALY":"244.6964","APOAPSIS":"548.234","ECCENTRICITY":"0.00014770","ARG_OF_PERICENTER":"115.4178","ELEMENT_SET_NO":"999","BSTAR":"0.00061367000000","FILE":"3792084","RA_OF_ASC_NODE":"24.8238","SITE":"AFETR","GP_ID":"225431929","RCS_SIZE":"LARGE","MEAN_MOTION":"15.06400848","LAUNCH_DATE":"2021-02-04","MEAN_ELEMENT_THEORY":"SGP4","DECAY_DATE":null,"MEAN_MOTION_DDOT":"0.0000000000000","OBJECT_TYPE":"PAYLOAD","PERIOD":"95.592","CLASSIFICATION_TYPE":"U","TLE_LINE1":"1 47590U 21009AU  23045.73166686  .00008871  00000-0  61367-3 0  9994","OBJECT_NAME":"STARLINK-1995","CENTER_NAME":"EARTH","REF_FRAME":"TEME","EPHEMERIS_TYPE":"0","INCLINATION":"53.0539","TIME_SYSTEM":"UTC","PERIAPSIS":"546.188","COUNTRY_CODE":"US"},{"MEAN_MOTION":"15.06387474","RCS_SIZE":"LARGE","GP_ID":"225432669","LAUNCH_DATE":"2021-02-04","RA_OF_ASC_NODE":"4.2016","SITE":"AFETR","BSTAR":"0.00005255800000","FILE":"3792084","ECCENTRICITY":"0.00010550","ELEMENT_SET_NO":"999","ARG_OF_PERICENTER":"82.0561","SEMIMAJOR_AXIS":"6925.387","APOAPSIS":"547.983","MEAN_ANOMALY":"278.0548","TLE_LINE2":"2 47591  53.0525   4.2016 0001055  82.0561 278.0548 15.06387474112164","REV_AT_EPOCH":"11216","EPOCH":"2023-02-14T20:52:37.968960","NORAD_CAT_ID":"47591","OBJECT_ID":"2021-009AV","MEAN_MOTION_DOT":"0.00000501","TIME_SYSTEM":"UTC","COUNTRY_CODE":"US","PERIAPSIS":"546.521","INCLINATION":"53.0525","EPHEMERIS_TYPE":"0","CENTER_NAME":"EARTH","OBJECT_NAME":"STARLINK-1996","REF_FRAME":"TEME","TLE_LINE1":"1 47591U 21009AV  23045.86988390  .00000501  00000-0  52558-4 0  9998","CLASSIFICATION_TYPE":"U","OBJECT_TYPE":"PAYLOAD","MEAN_MOTION_DDOT":"0.0000000000000","PERIOD":"95.593","MEAN_ELEMENT_THEORY":"SGP4","DECAY_DATE":null},{"TIME_SYSTEM":"UTC","COUNTRY_CODE":"US","PERIAPSIS":"546.150","INCLINATION":"53.0564","EPHEMERIS_TYPE":"0","CENTER_NAME":"EARTH","OBJECT_NAME":"STARLINK-1997","REF_FRAME":"TEME","TLE_LINE1":"1 47592U 21009AW  23045.63582062  .00016753  00000-0  11405-2 0  9990","CLASSIFICATION_TYPE":"U","OBJECT_TYPE":"PAYLOAD","MEAN_MOTION_DDOT":"0.0000000000000","PERIOD":"95.591","MEAN_ELEMENT_THEORY":"SGP4","DECAY_DATE":null,"MEAN_MOTION":"15.06412974","GP_ID":"225431427","RCS_SIZE":"LARGE","LAUNCH_DATE":"2021-02-04","SITE":"AFETR","RA_OF_ASC_NODE":"25.2444","BSTAR":"0.00114050000000","FILE":"3792084","ECCENTRICITY":"0.00014790","ELEMENT_SET_NO":"999","ARG_OF_PERICENTER":"93.1468","SEMIMAJOR_AXIS":"6925.309","APOAPSIS":"548.198","MEAN_ANOMALY":"266.9690","TLE_LINE2":"2 47592  53.0564  25.2444 0001479  93.1468 266.9690 15.06412974111847","REV_AT_EPOCH":"11184","NORAD_CAT_ID":"47592","EPOCH":"2023-02-14T15:15:34.901568","OBJECT_ID":"2021-009AW","MEAN_MOTION_DOT":"0.00016753"},{"NORAD_CAT_ID":"47593","EPOCH":"2023-02-14T08:10:57.692928","MEAN_MOTION_DOT":"0.00008487","OBJECT_ID":"2021-009AX","SEMIMAJOR_AXIS":"6925.323","APOAPSIS":"548.373","MEAN_ANOMALY":"275.8670","TLE_LINE2":"2 47593  53.0551  26.5695 0001712  84.2514 275.8670 15.06408479111807","REV_AT_EPOCH":"11180","BSTAR":"0.00058784000000","FILE":"3791349","ECCENTRICITY":"0.00017120","ELEMENT_SET_NO":"999","ARG_OF_PERICENTER":"84.2514","MEAN_MOTION":"15.06408479","RCS_SIZE":"LARGE","GP_ID":"225390565","LAUNCH_DATE":"2021-02-04","RA_OF_ASC_NODE":"26.5695","SITE":"AFETR","OBJECT_TYPE":"PAYLOAD","MEAN_MOTION_DDOT":"0.0000000000000","PERIOD":"95.592","MEAN_ELEMENT_THEORY":"SGP4","DECAY_DATE":null,"CENTER_NAME":"EARTH","OBJECT_NAME":"STARLINK-1998","REF_FRAME":"TEME","TLE_LINE1":"1 47593U 21009AX  23045.34094552  .00008487  00000-0  58784-3 0  9998","CLASSIFICATION_TYPE":"U","INCLINATION":"53.0551","EPHEMERIS_TYPE":"0","TIME_SYSTEM":"UTC","COUNTRY_CODE":"US","PERIAPSIS":"546.002"},{"MEAN_MOTION_DDOT":"0.0000000000000","OBJECT_TYPE":"PAYLOAD","PERIOD":"95.591","MEAN_ELEMENT_THEORY":"SGP4","DECAY_DATE":null,"OBJECT_NAME":"STARLINK-1999","CENTER_NAME":"EARTH","REF_FRAME":"TEME","CLASSIFICATION_TYPE":"U","TLE_LINE1":"1 47594U 21009AY  23045.63950519  .00016685  00000-0  11360-2 0  9992","INCLINATION":"53.0556","EPHEMERIS_TYPE":"0","TIME_SYSTEM":"UTC","PERIAPSIS":"546.494","COUNTRY_CODE":"US","NORAD_CAT_ID":"47594","EPOCH":"2023-02-14T15:20:53.248416","MEAN_MOTION_DOT":"0.00016685","OBJECT_ID":"2021-009AY","SEMIMAJOR_AXIS":"6925.315","MEAN_ANOMALY":"270.3794","APOAPSIS":"547.866","REV_AT_EPOCH":"11184","TLE_LINE2":"2 47594  53.0556  25.2255 0000991  89.7308 270.3794 15.06410978111848","BSTAR":"0.00113600000000","FILE":"3792084","ECCENTRICITY":"0.00009910","ARG_OF_PERICENTER":"89.7308","ELEMENT_SET_NO":"999","GP_ID":"225432429","RCS_SIZE":"LARGE","MEAN_MOTION":"15.06410978","LAUNCH_DATE":"2021-02-04","SITE":"AFETR","RA_OF_ASC_NODE":"25.2255"}];
